<?xml version="1.0" encoding="UTF-8"?>
<kml xmlns="http://www.opengis.net/kml/2.2" xmlns:gx="http://www.google.com/kml/ext/2.2" xmlns:kml="http://www.opengis.net/kml/2.2" xmlns:atom="http://www.w3.org/2005/Atom">
<Document id="1D8yblhJ0fvP1gN7cl1fZzJp1vE1SWWXv">
	<name>dragon_v20260125-alpha24</name>
	<gx:CascadingStyle kml:id="__managed_style_16F2DFABCE3D7A75E9C9">
		<Style>
			<IconStyle>
				<scale>1.2</scale>
				<Icon>
					<href>https://earth.google.com/earth/document/icon?color=1976d2&amp;id=2000&amp;scale=4</href>
				</Icon>
				<hotSpot x="64" y="128" xunits="pixels" yunits="insetPixels"/>
			</IconStyle>
			<LabelStyle>
			</LabelStyle>
			<LineStyle>
				<color>fffc9dff</color>
				<width>2</width>
			</LineStyle>
			<PolyStyle>
				<color>40ffffff</color>
			</PolyStyle>
			<BalloonStyle>
			</BalloonStyle>
		</Style>
	</gx:CascadingStyle>
	<gx:CascadingStyle kml:id="__managed_style_28B9EFAA9B3D7A75E9C8">
		<Style>
			<IconStyle>
				<scale>1.2</scale>
				<Icon>
					<href>https://earth.google.com/earth/document/icon?color=1976d2&amp;id=2000&amp;scale=4</href>
				</Icon>
				<hotSpot x="64" y="128" xunits="pixels" yunits="insetPixels"/>
			</IconStyle>
			<LabelStyle>
			</LabelStyle>
			<LineStyle>
				<color>ff838283</color>
				<width>3</width>
			</LineStyle>
			<PolyStyle>
				<color>40ffffff</color>
			</PolyStyle>
			<BalloonStyle>
			</BalloonStyle>
		</Style>
	</gx:CascadingStyle>
	<StyleMap id="__managed_style_085F1E7F293D7A75E9C8">
		<Pair>
			<key>normal</key>
			<styleUrl>#__managed_style_1E629C0A5A3D7A75E9C8</styleUrl>
		</Pair>
		<Pair>
			<key>highlight</key>
			<styleUrl>#__managed_style_28B9EFAA9B3D7A75E9C8</styleUrl>
		</Pair>
	</StyleMap>
	<gx:CascadingStyle kml:id="__managed_style_22873BC9573D7A75E9C9">
		<Style>
			<IconStyle>
				<scale>1.44</scale>
				<Icon>
					<href>https://earth.google.com/earth/document/icon?color=1976d2&amp;id=2000&amp;scale=4</href>
				</Icon>
				<hotSpot x="64" y="128" xunits="pixels" yunits="insetPixels"/>
			</IconStyle>
			<LabelStyle>
			</LabelStyle>
			<LineStyle>
				<color>fffc9dff</color>
				<width>3</width>
			</LineStyle>
			<PolyStyle>
				<color>40ffffff</color>
			</PolyStyle>
			<BalloonStyle>
			</BalloonStyle>
		</Style>
	</gx:CascadingStyle>
	<gx:CascadingStyle kml:id="__managed_style_2D291FE44E3D7A75E9C7">
		<Style>
			<IconStyle>
				<scale>1.2</scale>
				<Icon>
					<href>https://earth.google.com/earth/document/icon?color=1976d2&amp;id=2000&amp;scale=4</href>
				</Icon>
				<hotSpot x="64" y="128" xunits="pixels" yunits="insetPixels"/>
			</IconStyle>
			<LabelStyle>
			</LabelStyle>
			<LineStyle>
				<color>ff7ff7fc</color>
				<width>3</width>
			</LineStyle>
			<PolyStyle>
				<color>40ffffff</color>
			</PolyStyle>
			<BalloonStyle>
			</BalloonStyle>
		</Style>
	</gx:CascadingStyle>
	<StyleMap id="__managed_style_07B04876213D7A75E9C7">
		<Pair>
			<key>normal</key>
			<styleUrl>#__managed_style_144B100D313D7A75E9C7</styleUrl>
		</Pair>
		<Pair>
			<key>highlight</key>
			<styleUrl>#__managed_style_2D291FE44E3D7A75E9C7</styleUrl>
		</Pair>
	</StyleMap>
	<gx:CascadingStyle kml:id="__managed_style_2DCDC17B443D7A75E9C4">
		<Style>
			<IconStyle>
				<scale>1.2</scale>
				<Icon>
					<href>https://earth.google.com/earth/document/icon?color=1976d2&amp;id=2000&amp;scale=4</href>
				</Icon>
				<hotSpot x="64" y="128" xunits="pixels" yunits="insetPixels"/>
			</IconStyle>
			<LabelStyle>
			</LabelStyle>
			<LineStyle>
				<color>ff9aa626</color>
				<width>3</width>
			</LineStyle>
			<PolyStyle>
				<color>40ffffff</color>
			</PolyStyle>
			<BalloonStyle>
				<text></text>
			</BalloonStyle>
		</Style>
	</gx:CascadingStyle>
	<StyleMap id="__managed_style_03E1D07AF53D7A75E9C4">
		<Pair>
			<key>normal</key>
			<styleUrl>#__managed_style_104107A7283D7A75E9C4</styleUrl>
		</Pair>
		<Pair>
			<key>highlight</key>
			<styleUrl>#__managed_style_2DCDC17B443D7A75E9C4</styleUrl>
		</Pair>
	</StyleMap>
	<gx:CascadingStyle kml:id="__managed_style_144B100D313D7A75E9C7">
		<Style>
			<IconStyle>
				<Icon>
					<href>https://earth.google.com/earth/document/icon?color=1976d2&amp;id=2000&amp;scale=4</href>
				</Icon>
				<hotSpot x="64" y="128" xunits="pixels" yunits="insetPixels"/>
			</IconStyle>
			<LabelStyle>
			</LabelStyle>
			<LineStyle>
				<color>ff7ff7fc</color>
				<width>2</width>
			</LineStyle>
			<PolyStyle>
				<color>40ffffff</color>
			</PolyStyle>
			<BalloonStyle>
			</BalloonStyle>
		</Style>
	</gx:CascadingStyle>
	<gx:CascadingStyle kml:id="__managed_style_089F173BF63D7A75E9C3">
		<Style>
			<IconStyle>
				<scale>1.2</scale>
				<Icon>
					<href>https://earth.google.com/earth/document/icon?color=1976d2&amp;id=2000&amp;scale=4</href>
				</Icon>
				<hotSpot x="64" y="128" xunits="pixels" yunits="insetPixels"/>
			</IconStyle>
			<LabelStyle>
			</LabelStyle>
			<LineStyle>
				<color>ffbc47ab</color>
				<width>3</width>
			</LineStyle>
			<PolyStyle>
				<color>40ffffff</color>
			</PolyStyle>
			<BalloonStyle>
			</BalloonStyle>
		</Style>
	</gx:CascadingStyle>
	<StyleMap id="__managed_style_0DDA67A1323D7A75E9BF">
		<Pair>
			<key>normal</key>
			<styleUrl>#__managed_style_13B1BF38FB3D7A75E9BF</styleUrl>
		</Pair>
		<Pair>
			<key>highlight</key>
			<styleUrl>#__managed_style_232611DCD73D7A75E9BF</styleUrl>
		</Pair>
	</StyleMap>
	<gx:CascadingStyle kml:id="__managed_style_129768DB403D7A75E9C0">
		<Style>
			<IconStyle>
				<Icon>
					<href>https://earth.google.com/earth/document/icon?color=1976d2&amp;id=2000&amp;scale=4</href>
				</Icon>
				<hotSpot x="64" y="128" xunits="pixels" yunits="insetPixels"/>
			</IconStyle>
			<LabelStyle>
			</LabelStyle>
			<LineStyle>
				<color>ff26a7ff</color>
				<width>2</width>
			</LineStyle>
			<PolyStyle>
				<color>40ffffff</color>
			</PolyStyle>
			<BalloonStyle>
				<text></text>
			</BalloonStyle>
		</Style>
	</gx:CascadingStyle>
	<gx:CascadingStyle kml:id="__managed_style_0CE035A4BA3D7A75E9BE">
		<Style>
			<IconStyle>
				<scale>1.2</scale>
				<Icon>
					<href>https://earth.google.com/earth/document/icon?color=1976d2&amp;id=2000&amp;scale=4</href>
				</Icon>
				<hotSpot x="64" y="128" xunits="pixels" yunits="insetPixels"/>
			</IconStyle>
			<LabelStyle>
			</LabelStyle>
			<LineStyle>
				<color>fffc8e7f</color>
				<width>3</width>
			</LineStyle>
			<PolyStyle>
				<color>40ffffff</color>
			</PolyStyle>
			<BalloonStyle>
			</BalloonStyle>
		</Style>
	</gx:CascadingStyle>
	<gx:CascadingStyle kml:id="__managed_style_26A01189AF3D7A75E9C0">
		<Style>
			<IconStyle>
				<scale>1.2</scale>
				<Icon>
					<href>https://earth.google.com/earth/document/icon?color=1976d2&amp;id=2000&amp;scale=4</href>
				</Icon>
				<hotSpot x="64" y="128" xunits="pixels" yunits="insetPixels"/>
			</IconStyle>
			<LabelStyle>
			</LabelStyle>
			<LineStyle>
				<color>ff26a7ff</color>
				<width>3</width>
			</LineStyle>
			<PolyStyle>
				<color>40ffffff</color>
			</PolyStyle>
			<BalloonStyle>
				<text></text>
			</BalloonStyle>
		</Style>
	</gx:CascadingStyle>
	<gx:CascadingStyle kml:id="__managed_style_232611DCD73D7A75E9BF">
		<Style>
			<IconStyle>
				<scale>1.2</scale>
				<Icon>
					<href>https://earth.google.com/earth/document/icon?color=1976d2&amp;id=2000&amp;scale=4</href>
				</Icon>
				<hotSpot x="64" y="128" xunits="pixels" yunits="insetPixels"/>
			</IconStyle>
			<LabelStyle>
			</LabelStyle>
			<LineStyle>
				<color>ff7f7ffc</color>
				<width>3</width>
			</LineStyle>
			<PolyStyle>
				<color>40ffffff</color>
			</PolyStyle>
			<BalloonStyle>
			</BalloonStyle>
		</Style>
	</gx:CascadingStyle>
	<StyleMap id="__managed_style_06A98438903D7A77379E">
		<Pair>
			<key>normal</key>
			<styleUrl>#__managed_style_15297647273D7A77379E</styleUrl>
		</Pair>
		<Pair>
			<key>highlight</key>
			<styleUrl>#__managed_style_2DA59E60A83D7A77379E</styleUrl>
		</Pair>
	</StyleMap>
	<gx:CascadingStyle kml:id="__managed_style_2888E2FAD53D7A75E9B7">
		<Style>
			<IconStyle>
				<scale>1.2</scale>
				<Icon>
					<href>https://earth.google.com/earth/document/icon?color=1976d2&amp;id=2000&amp;scale=4</href>
				</Icon>
				<hotSpot x="64" y="128" xunits="pixels" yunits="insetPixels"/>
			</IconStyle>
			<LabelStyle>
			</LabelStyle>
			<LineStyle>
				<color>ff2dc0fb</color>
				<width>6</width>
			</LineStyle>
			<PolyStyle>
				<color>40ffffff</color>
			</PolyStyle>
			<BalloonStyle>
			</BalloonStyle>
		</Style>
	</gx:CascadingStyle>
	<StyleMap id="__managed_style_32CD28B3E83D7A75E9BC">
		<Pair>
			<key>normal</key>
			<styleUrl>#__managed_style_4789B58D963D7A75E9BC</styleUrl>
		</Pair>
		<Pair>
			<key>highlight</key>
			<styleUrl>#__managed_style_0CE035A4BA3D7A75E9BE</styleUrl>
		</Pair>
	</StyleMap>
	<StyleMap id="__managed_style_0A36FD1C523D7A75E9C0">
		<Pair>
			<key>normal</key>
			<styleUrl>#__managed_style_129768DB403D7A75E9C0</styleUrl>
		</Pair>
		<Pair>
			<key>highlight</key>
			<styleUrl>#__managed_style_26A01189AF3D7A75E9C0</styleUrl>
		</Pair>
	</StyleMap>
	<StyleMap id="__managed_style_01F8B1618C3D7A75E9C1">
		<Pair>
			<key>normal</key>
			<styleUrl>#__managed_style_1E353276CB3D7A75E9C1</styleUrl>
		</Pair>
		<Pair>
			<key>highlight</key>
			<styleUrl>#__managed_style_089F173BF63D7A75E9C3</styleUrl>
		</Pair>
	</StyleMap>
	<gx:CascadingStyle kml:id="__managed_style_1F69402B1C3D7A75E9B7">
		<Style>
			<IconStyle>
				<Icon>
					<href>https://earth.google.com/earth/document/icon?color=1976d2&amp;id=2000&amp;scale=4</href>
				</Icon>
				<hotSpot x="64" y="128" xunits="pixels" yunits="insetPixels"/>
			</IconStyle>
			<LabelStyle>
			</LabelStyle>
			<LineStyle>
				<color>ff2dc0fb</color>
				<width>4</width>
			</LineStyle>
			<PolyStyle>
				<color>40ffffff</color>
			</PolyStyle>
			<BalloonStyle>
			</BalloonStyle>
		</Style>
	</gx:CascadingStyle>
	<gx:CascadingStyle kml:id="__managed_style_104107A7283D7A75E9C4">
		<Style>
			<IconStyle>
				<Icon>
					<href>https://earth.google.com/earth/document/icon?color=1976d2&amp;id=2000&amp;scale=4</href>
				</Icon>
				<hotSpot x="64" y="128" xunits="pixels" yunits="insetPixels"/>
			</IconStyle>
			<LabelStyle>
			</LabelStyle>
			<LineStyle>
				<color>ff9aa626</color>
				<width>2</width>
			</LineStyle>
			<PolyStyle>
				<color>40ffffff</color>
			</PolyStyle>
			<BalloonStyle>
				<text></text>
			</BalloonStyle>
		</Style>
	</gx:CascadingStyle>
	<gx:CascadingStyle kml:id="__managed_style_1F48E317433D7A75E9B4">
		<Style>
			<IconStyle>
				<Icon>
					<href>https://earth.google.com/earth/document/icon?color=1976d2&amp;id=2000&amp;scale=4</href>
				</Icon>
				<hotSpot x="64" y="128" xunits="pixels" yunits="insetPixels"/>
			</IconStyle>
			<LabelStyle>
			</LabelStyle>
			<LineStyle>
				<color>ff2dc0fb</color>
				<width>4</width>
			</LineStyle>
			<PolyStyle>
				<color>40ffffff</color>
			</PolyStyle>
			<BalloonStyle>
				<displayMode>hide</displayMode>
			</BalloonStyle>
		</Style>
	</gx:CascadingStyle>
	<gx:CascadingStyle kml:id="__managed_style_4789B58D963D7A75E9BC">
		<Style>
			<IconStyle>
				<Icon>
					<href>https://earth.google.com/earth/document/icon?color=1976d2&amp;id=2000&amp;scale=4</href>
				</Icon>
				<hotSpot x="64" y="128" xunits="pixels" yunits="insetPixels"/>
			</IconStyle>
			<LabelStyle>
			</LabelStyle>
			<LineStyle>
				<color>fffc8e7f</color>
				<width>2</width>
			</LineStyle>
			<PolyStyle>
				<color>40ffffff</color>
			</PolyStyle>
			<BalloonStyle>
			</BalloonStyle>
		</Style>
	</gx:CascadingStyle>
	<gx:CascadingStyle kml:id="__managed_style_1DB80547AB3D7A75E9BC">
		<Style>
			<IconStyle>
				<Icon>
					<href>https://earth.google.com/earth/document/icon?color=1976d2&amp;id=2000&amp;scale=4</href>
				</Icon>
				<hotSpot x="64" y="128" xunits="pixels" yunits="insetPixels"/>
			</IconStyle>
			<LabelStyle>
			</LabelStyle>
			<LineStyle>
				<color>ff7ffc80</color>
				<width>2</width>
			</LineStyle>
			<PolyStyle>
				<color>40ffffff</color>
			</PolyStyle>
			<BalloonStyle>
				<displayMode>hide</displayMode>
			</BalloonStyle>
		</Style>
	</gx:CascadingStyle>
	<StyleMap id="__managed_style_02DE6ABA593D7A75E9B7">
		<Pair>
			<key>normal</key>
			<styleUrl>#__managed_style_1F69402B1C3D7A75E9B7</styleUrl>
		</Pair>
		<Pair>
			<key>highlight</key>
			<styleUrl>#__managed_style_2888E2FAD53D7A75E9B7</styleUrl>
		</Pair>
	</StyleMap>
	<gx:CascadingStyle kml:id="__managed_style_2DA59E60A83D7A77379E">
		<Style>
			<IconStyle>
				<scale>1.44</scale>
				<Icon>
					<href>https://earth.google.com/earth/document/icon?color=1976d2&amp;id=2000&amp;scale=4</href>
				</Icon>
				<hotSpot x="64" y="128" xunits="pixels" yunits="insetPixels"/>
			</IconStyle>
			<LabelStyle>
			</LabelStyle>
			<LineStyle>
				<color>ff2dc0fb</color>
				<width>9</width>
			</LineStyle>
			<PolyStyle>
				<color>40ffffff</color>
			</PolyStyle>
			<BalloonStyle>
				<text></text>
			</BalloonStyle>
		</Style>
	</gx:CascadingStyle>
	<gx:CascadingStyle kml:id="__managed_style_1E629C0A5A3D7A75E9C8">
		<Style>
			<IconStyle>
				<Icon>
					<href>https://earth.google.com/earth/document/icon?color=1976d2&amp;id=2000&amp;scale=4</href>
				</Icon>
				<hotSpot x="64" y="128" xunits="pixels" yunits="insetPixels"/>
			</IconStyle>
			<LabelStyle>
			</LabelStyle>
			<LineStyle>
				<color>ff838283</color>
				<width>2</width>
			</LineStyle>
			<PolyStyle>
				<color>40ffffff</color>
			</PolyStyle>
			<BalloonStyle>
			</BalloonStyle>
		</Style>
	</gx:CascadingStyle>
	<gx:CascadingStyle kml:id="__managed_style_13B1BF38FB3D7A75E9BF">
		<Style>
			<IconStyle>
				<Icon>
					<href>https://earth.google.com/earth/document/icon?color=1976d2&amp;id=2000&amp;scale=4</href>
				</Icon>
				<hotSpot x="64" y="128" xunits="pixels" yunits="insetPixels"/>
			</IconStyle>
			<LabelStyle>
			</LabelStyle>
			<LineStyle>
				<color>ff7f7ffc</color>
				<width>2</width>
			</LineStyle>
			<PolyStyle>
				<color>40ffffff</color>
			</PolyStyle>
			<BalloonStyle>
			</BalloonStyle>
		</Style>
	</gx:CascadingStyle>
	<gx:CascadingStyle kml:id="__managed_style_2864E5A2C43D7A75E9BC">
		<Style>
			<IconStyle>
				<scale>1.2</scale>
				<Icon>
					<href>https://earth.google.com/earth/document/icon?color=1976d2&amp;id=2000&amp;scale=4</href>
				</Icon>
				<hotSpot x="64" y="128" xunits="pixels" yunits="insetPixels"/>
			</IconStyle>
			<LabelStyle>
			</LabelStyle>
			<LineStyle>
				<color>ff7ffc80</color>
				<width>3</width>
			</LineStyle>
			<PolyStyle>
				<color>40ffffff</color>
			</PolyStyle>
			<BalloonStyle>
				<displayMode>hide</displayMode>
			</BalloonStyle>
		</Style>
	</gx:CascadingStyle>
	<StyleMap id="__managed_style_09238801CF3D7A75E9BC">
		<Pair>
			<key>normal</key>
			<styleUrl>#__managed_style_1DB80547AB3D7A75E9BC</styleUrl>
		</Pair>
		<Pair>
			<key>highlight</key>
			<styleUrl>#__managed_style_2864E5A2C43D7A75E9BC</styleUrl>
		</Pair>
	</StyleMap>
	<gx:CascadingStyle kml:id="__managed_style_15297647273D7A77379E">
		<Style>
			<IconStyle>
				<scale>1.2</scale>
				<Icon>
					<href>https://earth.google.com/earth/document/icon?color=1976d2&amp;id=2000&amp;scale=4</href>
				</Icon>
				<hotSpot x="64" y="128" xunits="pixels" yunits="insetPixels"/>
			</IconStyle>
			<LabelStyle>
			</LabelStyle>
			<LineStyle>
				<color>ff2dc0fb</color>
				<width>6</width>
			</LineStyle>
			<PolyStyle>
				<color>40ffffff</color>
			</PolyStyle>
			<BalloonStyle>
				<text></text>
			</BalloonStyle>
		</Style>
	</gx:CascadingStyle>
	<gx:CascadingStyle kml:id="__managed_style_2B65D1CD0A3D7A75E9B4">
		<Style>
			<IconStyle>
				<scale>1.2</scale>
				<Icon>
					<href>https://earth.google.com/earth/document/icon?color=1976d2&amp;id=2000&amp;scale=4</href>
				</Icon>
				<hotSpot x="64" y="128" xunits="pixels" yunits="insetPixels"/>
			</IconStyle>
			<LabelStyle>
			</LabelStyle>
			<LineStyle>
				<color>ff2dc0fb</color>
				<width>6</width>
			</LineStyle>
			<PolyStyle>
				<color>40ffffff</color>
			</PolyStyle>
			<BalloonStyle>
				<displayMode>hide</displayMode>
			</BalloonStyle>
		</Style>
	</gx:CascadingStyle>
	<gx:CascadingStyle kml:id="__managed_style_1E353276CB3D7A75E9C1">
		<Style>
			<IconStyle>
				<Icon>
					<href>https://earth.google.com/earth/document/icon?color=1976d2&amp;id=2000&amp;scale=4</href>
				</Icon>
				<hotSpot x="64" y="128" xunits="pixels" yunits="insetPixels"/>
			</IconStyle>
			<LabelStyle>
			</LabelStyle>
			<LineStyle>
				<color>ffbc47ab</color>
				<width>2</width>
			</LineStyle>
			<PolyStyle>
				<color>40ffffff</color>
			</PolyStyle>
			<BalloonStyle>
			</BalloonStyle>
		</Style>
	</gx:CascadingStyle>
	<StyleMap id="__managed_style_0DF063586F3D7A75E9C9">
		<Pair>
			<key>normal</key>
			<styleUrl>#__managed_style_16F2DFABCE3D7A75E9C9</styleUrl>
		</Pair>
		<Pair>
			<key>highlight</key>
			<styleUrl>#__managed_style_22873BC9573D7A75E9C9</styleUrl>
		</Pair>
	</StyleMap>
	<StyleMap id="__managed_style_0ACF4388FC3D7A75E9B4">
		<Pair>
			<key>normal</key>
			<styleUrl>#__managed_style_1F48E317433D7A75E9B4</styleUrl>
		</Pair>
		<Pair>
			<key>highlight</key>
			<styleUrl>#__managed_style_2B65D1CD0A3D7A75E9B4</styleUrl>
		</Pair>
	</StyleMap>
	<Folder id="01EB5B233A3C9B511C18">
		<name>places</name>
		<open>1</open>
		<styleUrl>#__managed_style_0ACF4388FC3D7A75E9B4</styleUrl>
		<Placemark id="0B46B338923D77FFCF77">
			<name>dragon/sirius</name>
			<LookAt>
				<longitude>-54.8461846</longitude>
				<latitude>-16.5212451</latitude>
				<altitude>0</altitude>
				<heading>0</heading>
				<tilt>0</tilt>
				<gx:fovy>35</gx:fovy>
				<range>1007.908882908459</range>
				<altitudeMode>relativeToGround</altitudeMode>
			</LookAt>
			<styleUrl>#__managed_style_0ACF4388FC3D7A75E9B4</styleUrl>
			<Point>
				<extrude>1</extrude>
				<coordinates>-54.84617999127759,-16.52124119115298,0</coordinates>
			</Point>
		</Placemark>
		<Placemark id="0CA2331BAB3D7A9B0EC7">
			<name>home</name>
			<LookAt>
				<longitude>-54.63291093430824</longitude>
				<latitude>-16.46771123731788</latitude>
				<altitude>233.6278548456624</altitude>
				<heading>0</heading>
				<tilt>0</tilt>
				<gx:fovy>35</gx:fovy>
				<range>55.24631125474116</range>
				<altitudeMode>absolute</altitudeMode>
			</LookAt>
			<styleUrl>#__managed_style_0ACF4388FC3D7A75E9B4</styleUrl>
			<Point>
				<coordinates>-54.63283115773721,-16.46769625743044,233.8525792923158</coordinates>
			</Point>
		</Placemark>
		<Placemark id="06C235EFE93D758B5878">
			<name>root</name>
			<LookAt>
				<longitude>-54.7356103</longitude>
				<latitude>-16.5272502</latitude>
				<altitude>0</altitude>
				<heading>0</heading>
				<tilt>0</tilt>
				<gx:fovy>35</gx:fovy>
				<range>1007.873923684222</range>
				<altitudeMode>relativeToGround</altitudeMode>
			</LookAt>
			<styleUrl>#__managed_style_0ACF4388FC3D7A75E9B4</styleUrl>
			<Point>
				<extrude>1</extrude>
				<coordinates>-54.73561029999999,-16.5272502,0</coordinates>
			</Point>
		</Placemark>
		<Placemark id="081813DD883D758D716C">
			<name>anchor</name>
			<LookAt>
				<longitude>-53.7909777</longitude>
				<latitude>-29.7098837</latitude>
				<altitude>0</altitude>
				<heading>0</heading>
				<tilt>0</tilt>
				<gx:fovy>35</gx:fovy>
				<range>903.1941895028991</range>
				<altitudeMode>relativeToGround</altitudeMode>
			</LookAt>
			<styleUrl>#__managed_style_0ACF4388FC3D7A75E9B4</styleUrl>
			<Point>
				<coordinates>-54.73561029999999,-29.7382846,0</coordinates>
			</Point>
		</Placemark>
		<Placemark id="0E00571EC33D759928F1">
			<name>gate</name>
			<LookAt>
				<longitude>-53.78999999999999</longitude>
				<latitude>-29.709</latitude>
				<altitude>0</altitude>
				<heading>0</heading>
				<tilt>0</tilt>
				<gx:fovy>35</gx:fovy>
				<range>903.2029792615508</range>
				<altitudeMode>relativeToGround</altitudeMode>
			</LookAt>
			<styleUrl>#__managed_style_0ACF4388FC3D7A75E9B4</styleUrl>
			<Point>
				<coordinates>-53.7909777,-29.7098837,0</coordinates>
			</Point>
		</Placemark>
		<Placemark id="0DB911D5693D75A08E14">
			<name>apg/heart</name>
			<LookAt>
				<longitude>-47.5302654</longitude>
				<latitude>-14.1374712</latitude>
				<altitude>0</altitude>
				<heading>0</heading>
				<tilt>0</tilt>
				<gx:fovy>35</gx:fovy>
				<range>1020.822208524484</range>
				<altitudeMode>relativeToGround</altitudeMode>
			</LookAt>
			<styleUrl>#__managed_style_0ACF4388FC3D7A75E9B4</styleUrl>
			<Point>
				<extrude>1</extrude>
				<coordinates>-47.5302654,-14.1374712,0</coordinates>
			</Point>
		</Placemark>
		<Placemark id="097075CF9F3D7A75E9B0">
			<name>808</name>
			<styleUrl>#__managed_style_06A98438903D7A77379E</styleUrl>
			<Point>
				<coordinates>-54.880853157178,-16.046534216703,0</coordinates>
			</Point>
		</Placemark>
		<Folder id="0074D425E03D27289C0C">
			<name>crater</name>
			<open>1</open>
			<styleUrl>#__managed_style_0ACF4388FC3D7A75E9B4</styleUrl>
			<Placemark id="084EA7CD103C75EE9F10">
				<name>crater</name>
				<LookAt>
					<longitude>-52.98800468639379</longitude>
					<latitude>-16.81452961476252</latitude>
					<altitude>499.3735955228773</altitude>
					<heading>0</heading>
					<tilt>0</tilt>
					<gx:fovy>35</gx:fovy>
					<range>591.0519612734788</range>
					<altitudeMode>absolute</altitudeMode>
				</LookAt>
				<styleUrl>#__managed_style_02DE6ABA593D7A75E9B7</styleUrl>
				<Point>
					<coordinates>-52.98824441182628,-16.81455884089764,499.5046030186339</coordinates>
				</Point>
			</Placemark>
			<Placemark id="05042A0CF13D2700D32B">
				<name>bridge</name>
				<LookAt>
					<longitude>-54.79146072879405</longitude>
					<latitude>-16.53001126986659</latitude>
					<altitude>197.7557091307336</altitude>
					<heading>0</heading>
					<tilt>0</tilt>
					<gx:fovy>30</gx:fovy>
					<range>907.4415824603057</range>
					<altitudeMode>absolute</altitudeMode>
				</LookAt>
				<styleUrl>#__managed_style_0ACF4388FC3D7A75E9B4</styleUrl>
				<Point>
					<coordinates>-54.76125055001071,-16.53503110049762,197.52690833511</coordinates>
				</Point>
			</Placemark>
			<Placemark id="05544000793C9B2DD814">
				<name>lima</name>
				<LookAt>
					<longitude>-77.17923600321897</longitude>
					<latitude>-11.70390640709421</latitude>
					<altitude>334.7505447787315</altitude>
					<heading>0</heading>
					<tilt>0</tilt>
					<gx:fovy>30</gx:fovy>
					<range>25.0000047450294</range>
					<altitudeMode>absolute</altitudeMode>
				</LookAt>
				<styleUrl>#__managed_style_0ACF4388FC3D7A75E9B4</styleUrl>
				<Point>
					<coordinates>-77.17922505776026,-11.70392548046734,334.684531249571</coordinates>
				</Point>
			</Placemark>
			<Placemark id="02C8EF94263C9B43820E">
				<name>san jose</name>
				<LookAt>
					<longitude>120.9978025854628</longitude>
					<latitude>15.80255914992405</latitude>
					<altitude>113.8509342981143</altitude>
					<heading>0</heading>
					<tilt>0</tilt>
					<gx:fovy>30</gx:fovy>
					<range>25.00222689736803</range>
					<altitudeMode>absolute</altitudeMode>
				</LookAt>
				<styleUrl>#__managed_style_0ACF4388FC3D7A75E9B4</styleUrl>
				<Point>
					<coordinates>120.9978199690588,15.80253615382433,113.8662639275305</coordinates>
				</Point>
			</Placemark>
		</Folder>
		<Folder id="0A10F789ED3D27278CCE">
			<name>orion</name>
			<open>1</open>
			<styleUrl>#__managed_style_0ACF4388FC3D7A75E9B4</styleUrl>
			<Placemark id="081FF8D4863C5C48D739">
				<name>cloverleaf</name>
				<LookAt>
					<longitude>-54.65514376970007</longitude>
					<latitude>-16.47241626629419</latitude>
					<altitude>221.1500077570373</altitude>
					<heading>-52.03869364531114</heading>
					<tilt>22.43233169855077</tilt>
					<gx:fovy>35</gx:fovy>
					<range>174.893482893749</range>
					<altitudeMode>absolute</altitudeMode>
				</LookAt>
				<styleUrl>#__managed_style_02DE6ABA593D7A75E9B7</styleUrl>
				<Point>
					<coordinates>-54.65500392989707,-16.47232540264832,221.2714937622828</coordinates>
				</Point>
			</Placemark>
			<Placemark id="0AF194AD8C3C65F495FF">
				<name>817</name>
				<LookAt>
					<longitude>-47.51439432991172</longitude>
					<latitude>-14.50817307830777</latitude>
					<altitude>989.8144555978989</altitude>
					<heading>0</heading>
					<tilt>0</tilt>
					<gx:fovy>35</gx:fovy>
					<range>25.00685662284013</range>
					<altitudeMode>absolute</altitudeMode>
				</LookAt>
				<styleUrl>#__managed_style_02DE6ABA593D7A75E9B7</styleUrl>
				<Point>
					<coordinates>-47.5129088407262,-14.5058901289941,990.0768984526495</coordinates>
				</Point>
			</Placemark>
			<Placemark id="0236D313993C9B2FF508">
				<name>bjl</name>
				<LookAt>
					<longitude>-43.41089818592588</longitude>
					<latitude>-13.25960788971135</latitude>
					<altitude>446.3679434600821</altitude>
					<heading>0</heading>
					<tilt>0</tilt>
					<gx:fovy>30</gx:fovy>
					<range>76.43216099672827</range>
					<altitudeMode>absolute</altitudeMode>
				</LookAt>
				<styleUrl>#__managed_style_0ACF4388FC3D7A75E9B4</styleUrl>
				<Point>
					<coordinates>-43.41090261862496,-13.25951835485846,446.2427090991707</coordinates>
				</Point>
			</Placemark>
			<Placemark id="044D4ABDA83C9B3323EB">
				<name>dragon/sirius@1992</name>
				<LookAt>
					<longitude>-37.21192735289407</longitude>
					<latitude>-11.2278308678326</latitude>
					<altitude>2.457901578781221</altitude>
					<heading>8.537736462515939e-07</heading>
					<tilt>0</tilt>
					<gx:fovy>30</gx:fovy>
					<range>25.00133166259275</range>
					<altitudeMode>absolute</altitudeMode>
				</LookAt>
				<styleUrl>#__managed_style_0ACF4388FC3D7A75E9B4</styleUrl>
				<Point>
					<coordinates>-37.21192332610386,-11.22783434825941,2.43559181670119</coordinates>
				</Point>
			</Placemark>
			<Placemark id="0BC67386113C5D4296B9">
				<name>buptan</name>
				<LookAt>
					<longitude>8.669903771334408</longitude>
					<latitude>6.638560703045891</latitude>
					<altitude>76.38771277800137</altitude>
					<heading>3.725209591896075</heading>
					<tilt>0</tilt>
					<gx:fovy>35</gx:fovy>
					<range>275.7619317554781</range>
					<altitudeMode>absolute</altitudeMode>
				</LookAt>
				<styleUrl>#__managed_style_02DE6ABA593D7A75E9B7</styleUrl>
				<Point>
					<coordinates>12.20744336942455,7.98154423302821,77.57476806330961</coordinates>
				</Point>
			</Placemark>
			<Placemark id="0DC96898F43D6ADAE240">
				<name>porbandar</name>
				<LookAt>
					<longitude>69.60924839181853</longitude>
					<latitude>21.648769427601</latitude>
					<altitude>30.50771299021637</altitude>
					<heading>0</heading>
					<tilt>0</tilt>
					<gx:fovy>29.99999999999999</gx:fovy>
					<range>24.99999605342964</range>
					<altitudeMode>absolute</altitudeMode>
				</LookAt>
				<styleUrl>#__managed_style_0ACF4388FC3D7A75E9B4</styleUrl>
				<Point>
					<coordinates>69.60923981134292,21.64875486104459,30.58032740743946</coordinates>
				</Point>
			</Placemark>
			<Placemark id="078DA105F93D6AD9CAF0">
				<name>seoni</name>
				<LookAt>
					<longitude>79.53518542357791</longitude>
					<latitude>22.09890225488716</latitude>
					<altitude>625.7183556716702</altitude>
					<heading>0</heading>
					<tilt>0</tilt>
					<gx:fovy>29.99999999999999</gx:fovy>
					<range>24.99999605342964</range>
					<altitudeMode>absolute</altitudeMode>
				</LookAt>
				<styleUrl>#__managed_style_0ACF4388FC3D7A75E9B4</styleUrl>
				<Point>
					<coordinates>79.53519517521313,22.09887641099175,625.6868772083408</coordinates>
				</Point>
			</Placemark>
			<Placemark id="0BBAB0B8513D6ADF4844">
				<name>thai binh</name>
				<LookAt>
					<longitude>106.6054419670749</longitude>
					<latitude>20.28392858598025</latitude>
					<altitude>0.5898919920262236</altitude>
					<heading>0</heading>
					<tilt>0</tilt>
					<gx:fovy>29.99999999999999</gx:fovy>
					<range>25.00043642781748</range>
					<altitudeMode>absolute</altitudeMode>
				</LookAt>
				<styleUrl>#__managed_style_0ACF4388FC3D7A75E9B4</styleUrl>
				<Point>
					<coordinates>106.6062516332244,20.2837763375452,0.5421441879596056</coordinates>
				</Point>
			</Placemark>
			<Placemark id="0742E24DA33C9B4678AC">
				<name>ilocos sur</name>
				<LookAt>
					<longitude>120.3689738915478</longitude>
					<latitude>17.68002717005195</latitude>
					<altitude>3.964676853399098</altitude>
					<heading>0</heading>
					<tilt>0</tilt>
					<gx:fovy>30</gx:fovy>
					<range>109.4829019821736</range>
					<altitudeMode>absolute</altitudeMode>
				</LookAt>
				<styleUrl>#__managed_style_0ACF4388FC3D7A75E9B4</styleUrl>
				<Point>
					<coordinates>120.3686940472601,17.68020471055947,3.766895718092449</coordinates>
				</Point>
			</Placemark>
			<Placemark id="0389026C963C5D4069CB">
				<name>raroia</name>
				<LookAt>
					<longitude>-142.5280033794859</longitude>
					<latitude>-16.15077306059665</latitude>
					<altitude>-0.1887430181288663</altitude>
					<heading>3.730389838715042e-09</heading>
					<tilt>4.069317438903742</tilt>
					<gx:fovy>35</gx:fovy>
					<range>1159.203063723544</range>
					<altitudeMode>absolute</altitudeMode>
				</LookAt>
				<styleUrl>#__managed_style_02DE6ABA593D7A75E9B7</styleUrl>
				<Point>
					<coordinates>-142.5285985276366,-16.15138252922494,-0.1889059608680177</coordinates>
				</Point>
			</Placemark>
		</Folder>
		<Folder id="0CB6256E873D6E2C7778">
			<name>sm</name>
			<open>1</open>
			<styleUrl>#__managed_style_0ACF4388FC3D7A75E9B4</styleUrl>
			<Placemark id="057CB74AE43D280EC830">
				<name>sm</name>
				<LookAt>
					<longitude>-53.7912881933274</longitude>
					<latitude>-29.69241758432278</latitude>
					<altitude>126.5145164556619</altitude>
					<heading>355.0018110556817</heading>
					<tilt>0</tilt>
					<gx:fovy>30</gx:fovy>
					<range>95.67458641559824</range>
					<altitudeMode>absolute</altitudeMode>
				</LookAt>
				<styleUrl>#__managed_style_0ACF4388FC3D7A75E9B4</styleUrl>
				<Point>
					<coordinates>-53.79097774192989,-29.69217595074349,126.5356081262505</coordinates>
				</Point>
			</Placemark>
			<Placemark id="079049F59B3D276F59B0">
				<name>seoul</name>
				<LookAt>
					<longitude>126.977579015985</longitude>
					<latitude>37.57820785805863</latitude>
					<altitude>34.22678205739906</altitude>
					<heading>184.469007143146</heading>
					<tilt>0</tilt>
					<gx:fovy>30</gx:fovy>
					<range>49.2860814857795</range>
					<altitudeMode>absolute</altitudeMode>
				</LookAt>
				<styleUrl>#__managed_style_0ACF4388FC3D7A75E9B4</styleUrl>
				<Point>
					<coordinates>126.9776021345467,37.57819058539696,34.30467497906951</coordinates>
				</Point>
			</Placemark>
			<Placemark id="0180D7D64E3D6E2BD614">
				<name>datu salibo</name>
				<LookAt>
					<longitude>124.4828076296575</longitude>
					<latitude>6.988405440387893</latitude>
					<altitude>4.605141751856285</altitude>
					<heading>359.9999991404968</heading>
					<tilt>0</tilt>
					<gx:fovy>30</gx:fovy>
					<range>217.2789151053439</range>
					<altitudeMode>absolute</altitudeMode>
				</LookAt>
				<styleUrl>#__managed_style_0ACF4388FC3D7A75E9B4</styleUrl>
				<Point>
					<coordinates>124.4829867633155,6.988519888097322,4.428396384477553</coordinates>
				</Point>
			</Placemark>
			<Placemark id="084C3CD3A33D6E317D59">
				<name>asik-asik</name>
				<LookAt>
					<longitude>124.5244125192953</longitude>
					<latitude>7.592121055844077</latitude>
					<altitude>1272.61891865429</altitude>
					<heading>0</heading>
					<tilt>0</tilt>
					<gx:fovy>30</gx:fovy>
					<range>362.0692624178264</range>
					<altitudeMode>absolute</altitudeMode>
				</LookAt>
				<styleUrl>#__managed_style_0ACF4388FC3D7A75E9B4</styleUrl>
				<Point>
					<coordinates>124.5242396838966,7.591796952231019,1277.648190520815</coordinates>
				</Point>
			</Placemark>
		</Folder>
		<Folder id="0993EC8C733D276FBF3F">
			<name>bridge</name>
			<open>1</open>
			<styleUrl>#__managed_style_0ACF4388FC3D7A75E9B4</styleUrl>
			<Placemark id="0DFB4C1A933D2A50E538">
				<name>joint</name>
				<LookAt>
					<longitude>-60.59810715921217</longitude>
					<latitude>51.33502681200285</latitude>
					<altitude>441.2245524999945</altitude>
					<heading>0</heading>
					<tilt>0</tilt>
					<gx:fovy>35</gx:fovy>
					<range>110515.5761205219</range>
					<altitudeMode>absolute</altitudeMode>
				</LookAt>
				<styleUrl>#__managed_style_0ACF4388FC3D7A75E9B4</styleUrl>
				<Point>
					<coordinates>-60.54579527422403,51.30226920698723,447.0722585408804</coordinates>
				</Point>
			</Placemark>
			<Placemark id="01DFFEA2CD3D6AA00DE8">
				<name>kular/fossil</name>
				<LookAt>
					<longitude>133.8794192605102</longitude>
					<latitude>69.99152845966856</latitude>
					<altitude>182.5498868918462</altitude>
					<heading>0</heading>
					<tilt>0</tilt>
					<gx:fovy>30</gx:fovy>
					<range>213045.1824412867</range>
					<altitudeMode>absolute</altitudeMode>
				</LookAt>
				<styleUrl>#__managed_style_0ACF4388FC3D7A75E9B4</styleUrl>
				<Point>
					<coordinates>134.2630941931475,69.92691295833495,1145.246889795299</coordinates>
				</Point>
			</Placemark>
			<Placemark id="0C3FC506953D6AD231BB">
				<name>jeju</name>
				<LookAt>
					<longitude>126.5307965593256</longitude>
					<latitude>33.46154726522461</latitude>
					<altitude>218.6094248118071</altitude>
					<heading>0</heading>
					<tilt>0</tilt>
					<gx:fovy>29.99999999999999</gx:fovy>
					<range>58.01283586952196</range>
					<altitudeMode>absolute</altitudeMode>
				</LookAt>
				<styleUrl>#__managed_style_0ACF4388FC3D7A75E9B4</styleUrl>
				<Point>
					<coordinates>126.5307733152274,33.46154461513724,218.4644317313458</coordinates>
				</Point>
			</Placemark>
			<Placemark id="004514D0323D6E1F155F">
				<name>isulan</name>
				<LookAt>
					<longitude>124.5989284386249</longitude>
					<latitude>6.652247904518902</latitude>
					<altitude>65.05662694454126</altitude>
					<heading>3.19147645908239</heading>
					<tilt>0</tilt>
					<gx:fovy>30</gx:fovy>
					<range>54.42039488475531</range>
					<altitudeMode>absolute</altitudeMode>
				</LookAt>
				<styleUrl>#__managed_style_0ACF4388FC3D7A75E9B4</styleUrl>
				<Point>
					<coordinates>124.597616332332,6.631719652053397,65.07176743263729</coordinates>
				</Point>
			</Placemark>
			<Placemark id="0A2FD40C823D6E7A5C66">
				<name>seranggorang</name>
				<LookAt>
					<longitude>123.6638587210931</longitude>
					<latitude>-8.351107870313156</latitude>
					<altitude>601.3072230052699</altitude>
					<heading>0</heading>
					<tilt>0</tilt>
					<gx:fovy>30</gx:fovy>
					<range>98.05650774100286</range>
					<altitudeMode>absolute</altitudeMode>
				</LookAt>
				<styleUrl>#__managed_style_0ACF4388FC3D7A75E9B4</styleUrl>
				<Point>
					<coordinates>123.6638872555219,-8.35106137078054,601.1866228132412</coordinates>
				</Point>
			</Placemark>
			<Placemark id="0F129567CA3D6E915E39">
				<name>pulau kera</name>
				<LookAt>
					<longitude>123.553525111723</longitude>
					<latitude>-10.08811532594863</latitude>
					<altitude>9.655293773570133</altitude>
					<heading>0</heading>
					<tilt>0</tilt>
					<gx:fovy>30</gx:fovy>
					<range>128.3675000333278</range>
					<altitudeMode>absolute</altitudeMode>
				</LookAt>
				<styleUrl>#__managed_style_0ACF4388FC3D7A75E9B4</styleUrl>
				<Point>
					<coordinates>123.5534311248875,-10.0881887730936,9.487244116919559</coordinates>
				</Point>
			</Placemark>
			<Placemark id="0851E4A2DC3D6E8310F7">
				<name>penkase oeleta</name>
				<LookAt>
					<longitude>123.5470645374996</longitude>
					<latitude>-10.18803105315834</latitude>
					<altitude>77.9165251242447</altitude>
					<heading>0</heading>
					<tilt>0</tilt>
					<gx:fovy>30</gx:fovy>
					<range>29.58540016116785</range>
					<altitudeMode>absolute</altitudeMode>
				</LookAt>
				<styleUrl>#__managed_style_0ACF4388FC3D7A75E9B4</styleUrl>
				<Point>
					<coordinates>123.5470448437317,-10.18803160855906,77.95396382947519</coordinates>
				</Point>
			</Placemark>
			<Placemark id="00BFDA293C3D6EA0C901">
				<name>bandya</name>
				<LookAt>
					<longitude>122.3029165994839</longitude>
					<latitude>-27.93742609907141</latitude>
					<altitude>482.6588337005918</altitude>
					<heading>359.3770863583496</heading>
					<tilt>0</tilt>
					<gx:fovy>30</gx:fovy>
					<range>534.8734006172891</range>
					<altitudeMode>absolute</altitudeMode>
				</LookAt>
				<styleUrl>#__managed_style_0ACF4388FC3D7A75E9B4</styleUrl>
				<Point>
					<coordinates>122.3022820198357,-27.93751487488205,481.9853441309349</coordinates>
				</Point>
			</Placemark>
		</Folder>
		<Folder id="04853315BA3D272F08B0">
			<name>817</name>
			<open>1</open>
			<styleUrl>#__managed_style_0ACF4388FC3D7A75E9B4</styleUrl>
			<Placemark id="0210B8BBFA3C9B29439C">
				<name>santiago</name>
				<LookAt>
					<longitude>-70.70322169105781</longitude>
					<latitude>-33.35797016785316</latitude>
					<altitude>490.3104104020069</altitude>
					<heading>0</heading>
					<tilt>0</tilt>
					<gx:fovy>30</gx:fovy>
					<range>25.0001061470266</range>
					<altitudeMode>absolute</altitudeMode>
				</LookAt>
				<styleUrl>#__managed_style_0ACF4388FC3D7A75E9B4</styleUrl>
				<Point>
					<coordinates>-70.70320955084833,-33.35794045286595,490.326428487042</coordinates>
				</Point>
			</Placemark>
			<Placemark id="0E790B7CDF3C9B2BCB93">
				<name>sao luis</name>
				<LookAt>
					<longitude>-44.386012692281</longitude>
					<latitude>-2.510895364640815</latitude>
					<altitude>-0.1885394056629086</altitude>
					<heading>0</heading>
					<tilt>0</tilt>
					<gx:fovy>30</gx:fovy>
					<range>20.675370359088</range>
					<altitudeMode>absolute</altitudeMode>
				</LookAt>
				<styleUrl>#__managed_style_0ACF4388FC3D7A75E9B4</styleUrl>
				<Point>
					<coordinates>-44.38601335358702,-2.510890467918204,-0.1885370750296722</coordinates>
				</Point>
			</Placemark>
			<Placemark id="0205B544453C9B5D4BF4">
				<name>zurich</name>
				<LookAt>
					<longitude>8.511007797031763</longitude>
					<latitude>47.39082593834536</latitude>
					<altitude>414.0960792998378</altitude>
					<heading>0</heading>
					<tilt>0</tilt>
					<gx:fovy>35</gx:fovy>
					<range>58.14324463231969</range>
					<altitudeMode>absolute</altitudeMode>
				</LookAt>
				<styleUrl>#__managed_style_0ACF4388FC3D7A75E9B4</styleUrl>
				<Point>
					<coordinates>8.511056496952399,47.39079837415064,413.8279595671629</coordinates>
				</Point>
			</Placemark>
			<Placemark id="00363FC26F3C9B61E2CE">
				<name>radom</name>
				<LookAt>
					<longitude>21.20327977277416</longitude>
					<latitude>51.41433984061219</latitude>
					<altitude>170.7886521212268</altitude>
					<heading>5.848226994536099e-09</heading>
					<tilt>3.446331989633787</tilt>
					<gx:fovy>35</gx:fovy>
					<range>139.0704170992831</range>
					<altitudeMode>absolute</altitudeMode>
				</LookAt>
				<styleUrl>#__managed_style_0ACF4388FC3D7A75E9B4</styleUrl>
				<Point>
					<coordinates>21.20330714530503,51.41439570510194,170.5702945514979</coordinates>
				</Point>
			</Placemark>
			<Placemark id="0CB19F7E0D3C9991A48B">
				<name>pingliang</name>
				<LookAt>
					<longitude>106.63410539638</longitude>
					<latitude>35.55908376329569</latitude>
					<altitude>1385.506928972896</altitude>
					<heading>170.9259842696898</heading>
					<tilt>0</tilt>
					<gx:fovy>35</gx:fovy>
					<range>79.35122898169539</range>
					<altitudeMode>absolute</altitudeMode>
				</LookAt>
				<styleUrl>#__managed_style_0ACF4388FC3D7A75E9B4</styleUrl>
				<Point>
					<coordinates>106.6342173380203,35.55913722947987,1385.853874531274</coordinates>
				</Point>
			</Placemark>
			<Placemark id="08FDC69E183C99936F4C">
				<name>xiamen</name>
				<LookAt>
					<longitude>118.1527571349302</longitude>
					<latitude>24.73994443266705</latitude>
					<altitude>15.23653722779343</altitude>
					<heading>172.8690802295571</heading>
					<tilt>0</tilt>
					<gx:fovy>35</gx:fovy>
					<range>24.99999895062956</range>
					<altitudeMode>absolute</altitudeMode>
				</LookAt>
				<styleUrl>#__managed_style_0ACF4388FC3D7A75E9B4</styleUrl>
				<Point>
					<coordinates>118.1527832184557,24.73993763200055,15.23654407327703</coordinates>
				</Point>
			</Placemark>
		</Folder>
		<Folder id="0DB4D223753D6B06275C">
			<name>brain</name>
			<open>1</open>
			<styleUrl>#__managed_style_0ACF4388FC3D7A75E9B4</styleUrl>
			<Placemark id="082A29F2503D6AEE14EE">
				<name>brain/svs</name>
				<LookAt>
					<longitude>-54.585952</longitude>
					<latitude>-29.704733</latitude>
					<altitude>0</altitude>
					<heading>0</heading>
					<tilt>0</tilt>
					<gx:fovy>35</gx:fovy>
					<range>903.2454180187256</range>
					<altitudeMode>relativeToGround</altitudeMode>
				</LookAt>
				<styleUrl>#__managed_style_0ACF4388FC3D7A75E9B4</styleUrl>
				<Point>
					<extrude>1</extrude>
					<coordinates>-54.58595199999999,-29.704733,0</coordinates>
				</Point>
			</Placemark>
			<Placemark id="00FAE2FAD73D6B05F4B9">
				<name>apolinario</name>
				<LookAt>
					<longitude>-55.09922911818426</longitude>
					<latitude>-1.73297398495964</latitude>
					<altitude>20.60822714971709</altitude>
					<heading>0</heading>
					<tilt>0</tilt>
					<gx:fovy>30</gx:fovy>
					<range>28.73862974615804</range>
					<altitudeMode>absolute</altitudeMode>
				</LookAt>
				<styleUrl>#__managed_style_0ACF4388FC3D7A75E9B4</styleUrl>
				<Point>
					<coordinates>-55.09926294273184,-1.732973286251393,20.65380741111721</coordinates>
				</Point>
			</Placemark>
			<Placemark id="0D11871C763D6B0AA944">
				<name>paramaribo</name>
				<LookAt>
					<longitude>-55.22557270118214</longitude>
					<latitude>5.863890827538478</latitude>
					<altitude>4.260649203703586</altitude>
					<heading>1.207418269725733e-06</heading>
					<tilt>0</tilt>
					<gx:fovy>30</gx:fovy>
					<range>25.00234278536482</range>
					<altitudeMode>absolute</altitudeMode>
				</LookAt>
				<styleUrl>#__managed_style_0ACF4388FC3D7A75E9B4</styleUrl>
				<Point>
					<coordinates>-55.22558698001328,5.86389879312733,4.231046316586927</coordinates>
				</Point>
			</Placemark>
			<Placemark id="06E9BEDB603D6B14FF80">
				<name>alert</name>
				<LookAt>
					<longitude>-62.35724713249245</longitude>
					<latitude>82.49311061595937</latitude>
					<altitude>58.85752768505402</altitude>
					<heading>347.9272096340134</heading>
					<tilt>0</tilt>
					<gx:fovy>30</gx:fovy>
					<range>57.89468805678553</range>
					<altitudeMode>absolute</altitudeMode>
				</LookAt>
				<styleUrl>#__managed_style_0ACF4388FC3D7A75E9B4</styleUrl>
				<Point>
					<coordinates>-62.35735861130577,82.49307037771618,58.57608751979031</coordinates>
				</Point>
			</Placemark>
			<Placemark id="0B0C569C2B3D6B1A0866">
				<name>ebya</name>
				<LookAt>
					<longitude>126.6492068390651</longitude>
					<latitude>61.86717314854734</latitude>
					<altitude>203.1188569812331</altitude>
					<heading>177.4822255189328</heading>
					<tilt>0</tilt>
					<gx:fovy>29.99999999999999</gx:fovy>
					<range>171.9479576791127</range>
					<altitudeMode>absolute</altitudeMode>
				</LookAt>
				<styleUrl>#__managed_style_0ACF4388FC3D7A75E9B4</styleUrl>
				<Point>
					<coordinates>126.6492678544241,61.86739842126946,202.7021814454233</coordinates>
				</Point>
			</Placemark>
			<Placemark id="09F8FE450A3D6DEC1F67">
				<name>hongwei</name>
				<LookAt>
					<longitude>125.9365927216526</longitude>
					<latitude>48.2517348703449</latitude>
					<altitude>283.3292434863438</altitude>
					<heading>0</heading>
					<tilt>0</tilt>
					<gx:fovy>30</gx:fovy>
					<range>24.99999895062956</range>
					<altitudeMode>absolute</altitudeMode>
				</LookAt>
				<styleUrl>#__managed_style_0ACF4388FC3D7A75E9B4</styleUrl>
				<Point>
					<coordinates>125.9366433606583,48.25173222307973,283.3002003628665</coordinates>
				</Point>
			</Placemark>
			<Placemark id="0CD4BBBB8C3D6DDDA630">
				<name>houshuangdingzi</name>
				<LookAt>
					<longitude>125.7779333604445</longitude>
					<latitude>43.63487569704984</latitude>
					<altitude>237.6161553257441</altitude>
					<heading>0</heading>
					<tilt>0</tilt>
					<gx:fovy>30</gx:fovy>
					<range>25.00000474502941</range>
					<altitudeMode>absolute</altitudeMode>
				</LookAt>
				<styleUrl>#__managed_style_0ACF4388FC3D7A75E9B4</styleUrl>
				<Point>
					<coordinates>125.7779305921433,43.63490952456536,237.8264717142658</coordinates>
				</Point>
			</Placemark>
			<Placemark id="0DE2803FDC3D6D940908">
				<name>liuhe</name>
				<LookAt>
					<longitude>125.7363335662159</longitude>
					<latitude>42.29235322778796</latitude>
					<altitude>352.2905379105402</altitude>
					<heading>1.207418269725733e-06</heading>
					<tilt>0</tilt>
					<gx:fovy>30</gx:fovy>
					<range>24.99999895062956</range>
					<altitudeMode>absolute</altitudeMode>
				</LookAt>
				<styleUrl>#__managed_style_0ACF4388FC3D7A75E9B4</styleUrl>
				<Point>
					<coordinates>125.7363432923816,42.29234441598937,352.2905363416951</coordinates>
				</Point>
			</Placemark>
			<Placemark id="05D1E0AEC03D6D8EE41E">
				<name>jindouxiang</name>
				<LookAt>
					<longitude>125.7183515903749</longitude>
					<latitude>41.69396258294125</latitude>
					<altitude>391.1305198442466</altitude>
					<heading>0</heading>
					<tilt>0</tilt>
					<gx:fovy>30</gx:fovy>
					<range>76.81428428297295</range>
					<altitudeMode>absolute</altitudeMode>
				</LookAt>
				<styleUrl>#__managed_style_0ACF4388FC3D7A75E9B4</styleUrl>
				<Point>
					<coordinates>125.7183893662517,41.69484541358494,391.3252504685277</coordinates>
				</Point>
			</Placemark>
			<Placemark id="05EB9592203D6D87EDB8">
				<name>jiangdianzhen</name>
				<LookAt>
					<longitude>125.71032153219</longitude>
					<latitude>41.42226116424833</latitude>
					<altitude>338.7917642535144</altitude>
					<heading>0</heading>
					<tilt>0</tilt>
					<gx:fovy>30</gx:fovy>
					<range>24.99999315622973</range>
					<altitudeMode>absolute</altitudeMode>
				</LookAt>
				<styleUrl>#__managed_style_0ACF4388FC3D7A75E9B4</styleUrl>
				<Point>
					<coordinates>125.7103280901004,41.42224355503717,338.8747357403008</coordinates>
				</Point>
			</Placemark>
			<Placemark id="0F45D6156A3D6D7FB6EE">
				<name>chungbong-dong</name>
				<LookAt>
					<longitude>125.672367794284</longitude>
					<latitude>40.11095954628707</latitude>
					<altitude>163.2135993961296</altitude>
					<heading>0</heading>
					<tilt>0</tilt>
					<gx:fovy>30</gx:fovy>
					<range>24.99999605342964</range>
					<altitudeMode>absolute</altitudeMode>
				</LookAt>
				<styleUrl>#__managed_style_0ACF4388FC3D7A75E9B4</styleUrl>
				<Point>
					<coordinates>125.6724009421348,40.11094740722626,163.1127484554091</coordinates>
				</Point>
			</Placemark>
			<Placemark id="063E88BB4A3D6D7A5948">
				<name>anju</name>
				<LookAt>
					<longitude>125.6583796007679</longitude>
					<latitude>39.61493682206351</latitude>
					<altitude>17.0471639265337</altitude>
					<heading>0</heading>
					<tilt>0</tilt>
					<gx:fovy>30</gx:fovy>
					<range>68.97677905946693</range>
					<altitudeMode>absolute</altitudeMode>
				</LookAt>
				<styleUrl>#__managed_style_0ACF4388FC3D7A75E9B4</styleUrl>
				<Point>
					<coordinates>125.658440672602,39.61495216535346,16.82150660979902</coordinates>
				</Point>
			</Placemark>
			<Placemark id="09B2F0B33D3D6D762ACB">
				<name>kangnam</name>
				<LookAt>
					<longitude>125.6386419560121</longitude>
					<latitude>38.89994693815044</latitude>
					<altitude>17.46635664950812</altitude>
					<heading>0</heading>
					<tilt>0</tilt>
					<gx:fovy>30</gx:fovy>
					<range>25.00131138219331</range>
					<altitudeMode>absolute</altitudeMode>
				</LookAt>
				<styleUrl>#__managed_style_0ACF4388FC3D7A75E9B4</styleUrl>
				<Point>
					<coordinates>125.6386679782316,38.89994022666793,17.97358247689711</coordinates>
				</Point>
			</Placemark>
			<Placemark id="04F50243263D6D722774">
				<name>aeu-dong</name>
				<LookAt>
					<longitude>125.6219180179102</longitude>
					<latitude>38.28646387955515</latitude>
					<altitude>52.41384950322802</altitude>
					<heading>0</heading>
					<tilt>0</tilt>
					<gx:fovy>30</gx:fovy>
					<range>180.7495930919868</range>
					<altitudeMode>absolute</altitudeMode>
				</LookAt>
				<styleUrl>#__managed_style_0ACF4388FC3D7A75E9B4</styleUrl>
				<Point>
					<coordinates>125.6220111388796,38.28650127584211,52.29605957107273</coordinates>
				</Point>
			</Placemark>
			<Placemark id="0C485044CB3D6DFC1CB6">
				<name>rombang</name>
				<LookAt>
					<longitude>125.0824654122158</longitude>
					<latitude>12.49124209331685</latitude>
					<altitude>11.56813971047452</altitude>
					<heading>3.191476460371454</heading>
					<tilt>0</tilt>
					<gx:fovy>30</gx:fovy>
					<range>32.36958031226096</range>
					<altitudeMode>absolute</altitudeMode>
				</LookAt>
				<styleUrl>#__managed_style_0ACF4388FC3D7A75E9B4</styleUrl>
				<Point>
					<coordinates>125.0824762579314,12.49122535142975,11.64971272678159</coordinates>
				</Point>
			</Placemark>
			<Placemark id="02A5B9939C3D6E081D66">
				<name>basey</name>
				<LookAt>
					<longitude>125.0616084369938</longitude>
					<latitude>11.28599620224706</latitude>
					<altitude>6.065199738594509</altitude>
					<heading>3.191476459598381</heading>
					<tilt>0</tilt>
					<gx:fovy>30</gx:fovy>
					<range>53.59761328508284</range>
					<altitudeMode>absolute</altitudeMode>
				</LookAt>
				<styleUrl>#__managed_style_0ACF4388FC3D7A75E9B4</styleUrl>
				<Point>
					<coordinates>125.0616121860202,11.28599155715956,6.060383196069548</coordinates>
				</Point>
			</Placemark>
			<Placemark id="0706B4A9773D6E05DB04">
				<name>libertad</name>
				<LookAt>
					<longitude>125.04960901128</longitude>
					<latitude>10.5878911234184</latitude>
					<altitude>44.6264164260836</altitude>
					<heading>3.191476459749888</heading>
					<tilt>0</tilt>
					<gx:fovy>30</gx:fovy>
					<range>67.59800741195249</range>
					<altitudeMode>absolute</altitudeMode>
				</LookAt>
				<styleUrl>#__managed_style_0ACF4388FC3D7A75E9B4</styleUrl>
				<Point>
					<coordinates>125.0495955786102,10.58781664594343,44.50783284646918</coordinates>
				</Point>
			</Placemark>
			<Placemark id="0413DDFC2A3D6E3DB348">
				<name>baclayon</name>
				<LookAt>
					<longitude>125.0057422576762</longitude>
					<latitude>8.013010197622553</latitude>
					<altitude>716.7579643906305</altitude>
					<heading>0</heading>
					<tilt>0</tilt>
					<gx:fovy>30</gx:fovy>
					<range>25.00131717659315</range>
					<altitudeMode>absolute</altitudeMode>
				</LookAt>
				<styleUrl>#__managed_style_0ACF4388FC3D7A75E9B4</styleUrl>
				<Point>
					<coordinates>125.00574746797,8.012992288780827,716.6736685665994</coordinates>
				</Point>
			</Placemark>
			<Placemark id="060FCD88AD3D6E407081">
				<name>maramag</name>
				<LookAt>
					<longitude>125.0014977196932</longitude>
					<latitude>7.762355113003163</latitude>
					<altitude>281.3154689855467</altitude>
					<heading>0</heading>
					<tilt>0</tilt>
					<gx:fovy>30</gx:fovy>
					<range>65.87475289955364</range>
					<altitudeMode>absolute</altitudeMode>
				</LookAt>
				<styleUrl>#__managed_style_0ACF4388FC3D7A75E9B4</styleUrl>
				<Point>
					<coordinates>125.0015068482578,7.762247565249121,281.2695017824433</coordinates>
				</Point>
			</Placemark>
			<Placemark id="0938141C4F3D6E4C4A1E">
				<name>tampakan</name>
				<LookAt>
					<longitude>124.9795102205161</longitude>
					<latitude>6.455984552056488</latitude>
					<altitude>244.0810206513645</altitude>
					<heading>359.9999979029606</heading>
					<tilt>0</tilt>
					<gx:fovy>30</gx:fovy>
					<range>45.63534014702327</range>
					<altitudeMode>absolute</altitudeMode>
				</LookAt>
				<styleUrl>#__managed_style_0ACF4388FC3D7A75E9B4</styleUrl>
				<Point>
					<coordinates>124.9795077173782,6.455982836690821,244.0851761074732</coordinates>
				</Point>
			</Placemark>
			<Placemark id="0CA8A865563D6E50D736">
				<name>nueva vida</name>
				<LookAt>
					<longitude>124.9874772170464</longitude>
					<latitude>6.931923084727966</latitude>
					<altitude>77.78424306140339</altitude>
					<heading>0</heading>
					<tilt>0</tilt>
					<gx:fovy>30</gx:fovy>
					<range>58.71569657010696</range>
					<altitudeMode>absolute</altitudeMode>
				</LookAt>
				<styleUrl>#__managed_style_0ACF4388FC3D7A75E9B4</styleUrl>
				<Point>
					<coordinates>124.9875068022016,6.931859507914319,77.78419617005292</coordinates>
				</Point>
			</Placemark>
			<Placemark id="0C869A165C3D6E62CF6C">
				<name>paslaten</name>
				<LookAt>
					<longitude>124.8914100599088</longitude>
					<latitude>1.16979439454252</latitude>
					<altitude>689.2672077354742</altitude>
					<heading>0</heading>
					<tilt>0</tilt>
					<gx:fovy>30</gx:fovy>
					<range>25.0024123181629</range>
					<altitudeMode>absolute</altitudeMode>
				</LookAt>
				<styleUrl>#__managed_style_0ACF4388FC3D7A75E9B4</styleUrl>
				<Point>
					<coordinates>124.8913944530806,1.16980936253445,688.4936694962527</coordinates>
				</Point>
			</Placemark>
			<Placemark id="00F4A6F4DD3D6E6B4A61">
				<name>maumbi</name>
				<LookAt>
					<longitude>124.8966115641604</longitude>
					<latitude>1.484440173328762</latitude>
					<altitude>35.16595852097687</altitude>
					<heading>0</heading>
					<tilt>0</tilt>
					<gx:fovy>30</gx:fovy>
					<range>25.00000474502941</range>
					<altitudeMode>absolute</altitudeMode>
				</LookAt>
				<styleUrl>#__managed_style_0ACF4388FC3D7A75E9B4</styleUrl>
				<Point>
					<coordinates>124.8966135877905,1.484418626360295,35.1369046900259</coordinates>
				</Point>
			</Placemark>
			<Placemark id="04CE39AF113D6E748B8C">
				<name>tanjung una</name>
				<LookAt>
					<longitude>124.8435063738316</longitude>
					<latitude>-1.715365444793112</latitude>
					<altitude>26.81691090956965</altitude>
					<heading>0</heading>
					<tilt>0</tilt>
					<gx:fovy>30</gx:fovy>
					<range>107.8389032707855</range>
					<altitudeMode>absolute</altitudeMode>
				</LookAt>
				<styleUrl>#__managed_style_0ACF4388FC3D7A75E9B4</styleUrl>
				<Point>
					<coordinates>124.8435365715882,-1.715351269030906,26.64345597334085</coordinates>
				</Point>
			</Placemark>
			<Placemark id="029FEFEF283D6E9759EC">
				<name>tuamese</name>
				<LookAt>
					<longitude>124.7202950577932</longitude>
					<latitude>-9.057059076323197</latitude>
					<altitude>4.898026599494301</altitude>
					<heading>0</heading>
					<tilt>0</tilt>
					<gx:fovy>30</gx:fovy>
					<range>418.0986752221361</range>
					<altitudeMode>absolute</altitudeMode>
				</LookAt>
				<styleUrl>#__managed_style_0ACF4388FC3D7A75E9B4</styleUrl>
				<Point>
					<coordinates>124.72050575569,-9.057158008027816,5.275404331685298</coordinates>
				</Point>
			</Placemark>
			<Placemark id="072E43E3213D71CD9416">
				<name>rerewokan</name>
				<LookAt>
					<longitude>124.9076929200988</longitude>
					<latitude>1.307663802235993</latitude>
					<altitude>712.4084705864344</altitude>
					<heading>0</heading>
					<tilt>0</tilt>
					<gx:fovy>29.99999999999999</gx:fovy>
					<range>25.00208493457194</range>
					<altitudeMode>absolute</altitudeMode>
				</LookAt>
				<styleUrl>#__managed_style_0ACF4388FC3D7A75E9B4</styleUrl>
				<Point>
					<coordinates>124.9077200230859,1.307589915996516,712.3625552641464</coordinates>
				</Point>
			</Placemark>
			<Placemark id="0CAD82C0883D71D279C7">
				<name>kalawat</name>
				<LookAt>
					<longitude>124.9255995695348</longitude>
					<latitude>1.458295945570171</latitude>
					<altitude>144.8182853720461</altitude>
					<heading>5.300456276524245e-09</heading>
					<tilt>0.1747563742643819</tilt>
					<gx:fovy>29.99999999999999</gx:fovy>
					<range>134.6759906158696</range>
					<altitudeMode>absolute</altitudeMode>
				</LookAt>
				<styleUrl>#__managed_style_0ACF4388FC3D7A75E9B4</styleUrl>
				<Point>
					<coordinates>124.9256150366061,1.458273137701302,144.6309773187886</coordinates>
				</Point>
			</Placemark>
		</Folder>
		<Folder id="0C9E3ADC913D272AE908">
			<name>817b</name>
			<open>1</open>
			<styleUrl>#__managed_style_0ACF4388FC3D7A75E9B4</styleUrl>
			<Placemark id="0C64CA10073C9B38CABF">
				<name>chetumal</name>
				<LookAt>
					<longitude>-88.29112784490177</longitude>
					<latitude>18.51983427629136</latitude>
					<altitude>7.679695783631757</altitude>
					<heading>0</heading>
					<tilt>0</tilt>
					<gx:fovy>30</gx:fovy>
					<range>24.99999895062956</range>
					<altitudeMode>absolute</altitudeMode>
				</LookAt>
				<styleUrl>#__managed_style_0ACF4388FC3D7A75E9B4</styleUrl>
				<Point>
					<coordinates>-88.29111140863266,18.5198454151806,7.780394342670687</coordinates>
				</Point>
			</Placemark>
			<Placemark id="0CD3DE002F3C9B3D7ADC">
				<name>santa clarita</name>
				<LookAt>
					<longitude>-118.6029701552018</longitude>
					<latitude>34.41631503593305</latitude>
					<altitude>379.5627925617808</altitude>
					<heading>0</heading>
					<tilt>0</tilt>
					<gx:fovy>30</gx:fovy>
					<range>24.99999895062957</range>
					<altitudeMode>absolute</altitudeMode>
				</LookAt>
				<styleUrl>#__managed_style_0ACF4388FC3D7A75E9B4</styleUrl>
				<Point>
					<coordinates>-118.6029829259936,34.41632936603188,387.1297833824865</coordinates>
				</Point>
			</Placemark>
			<Placemark id="0BA7CE35B13D6E1593D4">
				<name>malitbog</name>
				<LookAt>
					<longitude>124.9992961202852</longitude>
					<latitude>8.564150512009835</latitude>
					<altitude>946.0482960241596</altitude>
					<heading>3.191476459324389</heading>
					<tilt>0</tilt>
					<gx:fovy>30</gx:fovy>
					<range>57.05185783366687</range>
					<altitudeMode>absolute</altitudeMode>
				</LookAt>
				<styleUrl>#__managed_style_0ACF4388FC3D7A75E9B4</styleUrl>
				<Point>
					<coordinates>124.9996778973978,8.56438135062068,945.6497373287731</coordinates>
				</Point>
			</Placemark>
		</Folder>
		<Folder id="09C7396EA13D6F0E7068">
			<name>poa</name>
			<open>1</open>
			<styleUrl>#__managed_style_0ACF4388FC3D7A75E9B4</styleUrl>
			<Placemark id="0347B477813D6F0E1D1F">
				<name>poa</name>
				<LookAt>
					<longitude>-51.32285552290153</longitude>
					<latitude>-29.99592494383541</latitude>
					<altitude>5.670701661287946</altitude>
					<heading>0</heading>
					<tilt>0</tilt>
					<gx:fovy>30</gx:fovy>
					<range>24.99999895062957</range>
					<altitudeMode>absolute</altitudeMode>
				</LookAt>
				<styleUrl>#__managed_style_0ACF4388FC3D7A75E9B4</styleUrl>
				<Point>
					<coordinates>-51.32287218034204,-29.99592560171835,5.670703112717204</coordinates>
				</Point>
			</Placemark>
			<Placemark id="00CA39BBC43D6F19C650">
				<name>bobieding</name>
				<LookAt>
					<longitude>122.6786978325545</longitude>
					<latitude>-16.97422395562662</latitude>
					<altitude>7.033654710411216</altitude>
					<heading>0</heading>
					<tilt>0</tilt>
					<gx:fovy>30</gx:fovy>
					<range>25.00133745699259</range>
					<altitudeMode>absolute</altitudeMode>
				</LookAt>
				<styleUrl>#__managed_style_0ACF4388FC3D7A75E9B4</styleUrl>
				<Point>
					<coordinates>122.6786971910981,-16.97423981238414,6.927865585793958</coordinates>
				</Point>
			</Placemark>
			<Placemark id="09F38EFC713D6F21E561">
				<name>wowong</name>
				<LookAt>
					<longitude>123.7632704914587</longitude>
					<latitude>-8.286328094110928</latitude>
					<altitude>7.762184139697141</altitude>
					<heading>0</heading>
					<tilt>0</tilt>
					<gx:fovy>30</gx:fovy>
					<range>39.79232529242381</range>
					<altitudeMode>absolute</altitudeMode>
				</LookAt>
				<styleUrl>#__managed_style_0ACF4388FC3D7A75E9B4</styleUrl>
				<Point>
					<coordinates>123.7632808555989,-8.286278236661399,7.727523188549106</coordinates>
				</Point>
			</Placemark>
			<Placemark id="0A56857F553D6F37A50C">
				<name>bareng</name>
				<LookAt>
					<longitude>123.7770350465248</longitude>
					<latitude>-8.173215630582376</latitude>
					<altitude>21.18757667543414</altitude>
					<heading>0</heading>
					<tilt>0</tilt>
					<gx:fovy>30</gx:fovy>
					<range>164.5254010169447</range>
					<altitudeMode>absolute</altitudeMode>
				</LookAt>
				<styleUrl>#__managed_style_0ACF4388FC3D7A75E9B4</styleUrl>
				<Point>
					<coordinates>123.7769322109571,-8.173530551937278,22.84694024239823</coordinates>
				</Point>
			</Placemark>
			<Placemark id="0D9D0954CC3D6F3AAEC3">
				<name>lagongga</name>
				<LookAt>
					<longitude>124.0472992572569</longitude>
					<latitude>-5.92752425373149</latitude>
					<altitude>11.37179362279619</altitude>
					<heading>0</heading>
					<tilt>0</tilt>
					<gx:fovy>30</gx:fovy>
					<range>90.05028118295741</range>
					<altitudeMode>absolute</altitudeMode>
				</LookAt>
				<styleUrl>#__managed_style_0ACF4388FC3D7A75E9B4</styleUrl>
				<Point>
					<coordinates>124.0473498382474,-5.927559488054473,11.30138955267084</coordinates>
				</Point>
			</Placemark>
			<Placemark id="04E7EB58643D71C59BEF">
				<name>kawalo</name>
				<LookAt>
					<longitude>124.5145713126126</longitude>
					<latitude>-2.007223068389899</latitude>
					<altitude>17.44655057035913</altitude>
					<heading>0</heading>
					<tilt>0</tilt>
					<gx:fovy>30</gx:fovy>
					<range>67.09450883226054</range>
					<altitudeMode>absolute</altitudeMode>
				</LookAt>
				<styleUrl>#__managed_style_0ACF4388FC3D7A75E9B4</styleUrl>
				<Point>
					<coordinates>124.5146080964139,-2.007169369395939,17.79205434313858</coordinates>
				</Point>
			</Placemark>
			<Placemark id="044440C4DB3D71DA75F8">
				<name>kulu</name>
				<LookAt>
					<longitude>124.9516715004163</longitude>
					<latitude>1.678160478837531</latitude>
					<altitude>20.4988982918773</altitude>
					<heading>-4.992314813565668</heading>
					<tilt>9.810479646082449</tilt>
					<gx:fovy>29.99999999999999</gx:fovy>
					<range>25.90679065638142</range>
					<altitudeMode>absolute</altitudeMode>
				</LookAt>
				<styleUrl>#__managed_style_0ACF4388FC3D7A75E9B4</styleUrl>
				<Point>
					<coordinates>124.9517004627104,1.6781816518787,20.21104407116497</coordinates>
				</Point>
			</Placemark>
			<Placemark id="0A07E41A0F3D71DF75A0">
				<name>jose abad santos</name>
				<LookAt>
					<longitude>125.4165721274943</longitude>
					<latitude>5.584412280026669</latitude>
					<altitude>17.69429602611179</altitude>
					<heading>7.407556292882061</heading>
					<tilt>0</tilt>
					<gx:fovy>29.99999999999999</gx:fovy>
					<range>253.8848970285835</range>
					<altitudeMode>absolute</altitudeMode>
				</LookAt>
				<styleUrl>#__managed_style_0ACF4388FC3D7A75E9B4</styleUrl>
				<Point>
					<coordinates>125.4168795574023,5.584385972945666,17.72800988996216</coordinates>
				</Point>
			</Placemark>
			<Placemark id="029B4648813D71E8371C">
				<name>glan</name>
				<LookAt>
					<longitude>125.4540257160036</longitude>
					<latitude>5.894444066656969</latitude>
					<altitude>732.9136946144315</altitude>
					<heading>7.411302406253134</heading>
					<tilt>0</tilt>
					<gx:fovy>29.99999999999999</gx:fovy>
					<range>24.99709885350967</range>
					<altitudeMode>absolute</altitudeMode>
				</LookAt>
				<styleUrl>#__managed_style_0ACF4388FC3D7A75E9B4</styleUrl>
				<Point>
					<coordinates>125.4540340581894,5.894445546911857,732.9008380436378</coordinates>
				</Point>
			</Placemark>
			<Placemark id="0059FB0F873D71F2FB64">
				<name>ungun</name>
				<LookAt>
					<longitude>132.3749187449104</longitude>
					<latitude>48.20743207299185</latitude>
					<altitude>107.937615949232</altitude>
					<heading>0</heading>
					<tilt>0</tilt>
					<gx:fovy>29.99999999999999</gx:fovy>
					<range>114.22585002716</range>
					<altitudeMode>absolute</altitudeMode>
				</LookAt>
				<styleUrl>#__managed_style_0ACF4388FC3D7A75E9B4</styleUrl>
				<Point>
					<coordinates>132.3748166851676,48.20735826335775,108.0116806130658</coordinates>
				</Point>
			</Placemark>
			<Placemark id="08C6F866793D733FE10C">
				<name>tomponskiy ulus</name>
				<LookAt>
					<longitude>138.6771706526655</longitude>
					<latitude>63.77420119525762</latitude>
					<altitude>1205.170559166768</altitude>
					<heading>3.822371267433221</heading>
					<tilt>0</tilt>
					<gx:fovy>29.99999999999999</gx:fovy>
					<range>875.9575950419821</range>
					<altitudeMode>absolute</altitudeMode>
				</LookAt>
				<styleUrl>#__managed_style_0ACF4388FC3D7A75E9B4</styleUrl>
				<Point>
					<coordinates>138.679338685852,63.7745158673529,1221.885310956367</coordinates>
				</Point>
			</Placemark>
			<Placemark id="03BE77150E3D739A2468">
				<name>naufrage</name>
				<LookAt>
					<longitude>-62.41671386164327</longitude>
					<latitude>46.46897095223132</latitude>
					<altitude>0.07432381044462311</altitude>
					<heading>36.88331112581329</heading>
					<tilt>0</tilt>
					<gx:fovy>35</gx:fovy>
					<range>25.00000184782949</range>
					<altitudeMode>absolute</altitudeMode>
				</LookAt>
				<styleUrl>#__managed_style_0ACF4388FC3D7A75E9B4</styleUrl>
				<Point>
					<coordinates>-62.41672048940507,46.46898385593988,0.07432705847734589</coordinates>
				</Point>
			</Placemark>
			<Placemark id="0183A0297A3D739DDF40">
				<name>knoydart</name>
				<LookAt>
					<longitude>-62.2298387885363</longitude>
					<latitude>45.71853272831071</latitude>
					<altitude>26.25309389223957</altitude>
					<heading>37.06028915004349</heading>
					<tilt>0</tilt>
					<gx:fovy>35</gx:fovy>
					<range>226.545852414165</range>
					<altitudeMode>absolute</altitudeMode>
				</LookAt>
				<styleUrl>#__managed_style_0ACF4388FC3D7A75E9B4</styleUrl>
				<Point>
					<coordinates>-62.23027298891606,45.71859252199533,25.01394695095561</coordinates>
				</Point>
			</Placemark>
			<Placemark id="0A28039E0D3D73D896C0">
				<name>pacoval</name>
				<LookAt>
					<longitude>-55.04098572358363</longitude>
					<latitude>-1.739825120252479</latitude>
					<altitude>13.62464664539553</altitude>
					<heading>355.8424769287506</heading>
					<tilt>0</tilt>
					<gx:fovy>35</gx:fovy>
					<range>145.7435029085536</range>
					<altitudeMode>absolute</altitudeMode>
				</LookAt>
				<styleUrl>#__managed_style_0ACF4388FC3D7A75E9B4</styleUrl>
				<Point>
					<coordinates>-55.04094025475386,-1.740125424645258,14.60562963733005</coordinates>
				</Point>
			</Placemark>
			<Placemark id="06FD6F05EC3D73D5B7DC">
				<name>alter do chão</name>
				<LookAt>
					<longitude>-54.94762355025227</longitude>
					<latitude>-2.526306428035896</latitude>
					<altitude>55.94903542619458</altitude>
					<heading>355.842504908543</heading>
					<tilt>0</tilt>
					<gx:fovy>35</gx:fovy>
					<range>67.12229877389291</range>
					<altitudeMode>absolute</altitudeMode>
				</LookAt>
				<styleUrl>#__managed_style_0ACF4388FC3D7A75E9B4</styleUrl>
				<Point>
					<coordinates>-54.94760521131481,-2.526259486230014,55.8640377851905</coordinates>
				</Point>
			</Placemark>
			<Placemark id="09C4A45FF73D73CDC20C">
				<name>belterra</name>
				<LookAt>
					<longitude>-54.83410343255088</longitude>
					<latitude>-3.480672303539771</latitude>
					<altitude>120.2602141002669</altitude>
					<heading>355.8425432816387</heading>
					<tilt>0</tilt>
					<gx:fovy>35</gx:fovy>
					<range>140.7111477691615</range>
					<altitudeMode>absolute</altitudeMode>
				</LookAt>
				<styleUrl>#__managed_style_0ACF4388FC3D7A75E9B4</styleUrl>
				<Point>
					<coordinates>-54.83412508866758,-3.480709772572538,120.2993285852583</coordinates>
				</Point>
			</Placemark>
			<Placemark id="04A06B28623D73C2D5F1">
				<name>bonsucesso</name>
				<LookAt>
					<longitude>-53.98861984430135</longitude>
					<latitude>-10.50090081267885</latitude>
					<altitude>431.3392623025113</altitude>
					<heading>355.8426332876247</heading>
					<tilt>0</tilt>
					<gx:fovy>35</gx:fovy>
					<range>157.2947896438746</range>
					<altitudeMode>absolute</altitudeMode>
				</LookAt>
				<styleUrl>#__managed_style_0ACF4388FC3D7A75E9B4</styleUrl>
				<Point>
					<coordinates>-53.98808892107255,-10.50101044485244,430.1786330835827</coordinates>
				</Point>
			</Placemark>
			<Placemark id="03CC020C323D73B9FC14">
				<name>gaúcha do norte</name>
				<LookAt>
					<longitude>-53.64998882765804</longitude>
					<latitude>-13.23068838653092</latitude>
					<altitude>325.5770109163317</altitude>
					<heading>355.8426561976868</heading>
					<tilt>0</tilt>
					<gx:fovy>35</gx:fovy>
					<range>24.99999315622972</range>
					<altitudeMode>absolute</altitudeMode>
				</LookAt>
				<styleUrl>#__managed_style_0ACF4388FC3D7A75E9B4</styleUrl>
				<Point>
					<coordinates>-53.64996804376066,-13.23068268643535,325.4811077762879</coordinates>
				</Point>
			</Placemark>
			<Placemark id="085BE40A6E3D73B4C93F">
				<name>paranatinga</name>
				<LookAt>
					<longitude>-53.50972522552038</longitude>
					<latitude>-14.34580768733841</latitude>
					<altitude>436.9517526407066</altitude>
					<heading>355.8426824067778</heading>
					<tilt>0</tilt>
					<gx:fovy>35</gx:fovy>
					<range>25.11727760339</range>
					<altitudeMode>absolute</altitudeMode>
				</LookAt>
				<styleUrl>#__managed_style_0ACF4388FC3D7A75E9B4</styleUrl>
				<Point>
					<coordinates>-53.50972252735556,-14.34583635701648,436.9517495779929</coordinates>
				</Point>
			</Placemark>
			<Placemark id="0D5AFAD38E3D73AE21B0">
				<name>santo antônio do leste</name>
				<LookAt>
					<longitude>-53.45449576768141</longitude>
					<latitude>-14.78172826059658</latitude>
					<altitude>623.8312640610121</altitude>
					<heading>355.8426938558126</heading>
					<tilt>0</tilt>
					<gx:fovy>35</gx:fovy>
					<range>33.73393259577369</range>
					<altitudeMode>absolute</altitudeMode>
				</LookAt>
				<styleUrl>#__managed_style_0ACF4388FC3D7A75E9B4</styleUrl>
				<Point>
					<coordinates>-53.45451976118674,-14.78170715688265,623.7571413032272</coordinates>
				</Point>
			</Placemark>
			<Placemark id="0563F74C0F3D73A8B5EF">
				<name>araguainha</name>
				<LookAt>
					<longitude>-53.21152750604502</longitude>
					<latitude>-16.6796136153051</latitude>
					<altitude>728.4084051237709</altitude>
					<heading>355.8427091250628</heading>
					<tilt>0</tilt>
					<gx:fovy>35</gx:fovy>
					<range>24.99999895062957</range>
					<altitudeMode>absolute</altitudeMode>
				</LookAt>
				<styleUrl>#__managed_style_0ACF4388FC3D7A75E9B4</styleUrl>
				<Point>
					<coordinates>-53.21149480000918,-16.67964864792668,727.6016791157065</coordinates>
				</Point>
			</Placemark>
			<Placemark id="0AF8D3F20B3D73E6F518">
				<name>pinto bandeira</name>
				<LookAt>
					<longitude>-51.46466308802306</longitude>
					<latitude>-29.09274699210276</latitude>
					<altitude>563.4581048987512</altitude>
					<heading>355.842402220056</heading>
					<tilt>0</tilt>
					<gx:fovy>35</gx:fovy>
					<range>41.5263052389264</range>
					<altitudeMode>absolute</altitudeMode>
				</LookAt>
				<styleUrl>#__managed_style_0ACF4388FC3D7A75E9B4</styleUrl>
				<Point>
					<coordinates>-51.46468086693309,-29.09277781745776,563.0163256193472</coordinates>
				</Point>
			</Placemark>
			<Placemark id="09BB42945E3D73E3D811">
				<name>nova sardenha</name>
				<LookAt>
					<longitude>-51.43872659998213</longitude>
					<latitude>-29.25926020462089</latitude>
					<altitude>616.7087204602963</altitude>
					<heading>355.8424146428649</heading>
					<tilt>0</tilt>
					<gx:fovy>35</gx:fovy>
					<range>25.00303231894577</range>
					<altitudeMode>absolute</altitudeMode>
				</LookAt>
				<styleUrl>#__managed_style_0ACF4388FC3D7A75E9B4</styleUrl>
				<Point>
					<coordinates>-51.43873085831014,-29.25928055025681,615.3934053225228</coordinates>
				</Point>
			</Placemark>
			<Placemark id="029498BB773D73E0A183">
				<name>tupandi</name>
				<LookAt>
					<longitude>-51.39956119332326</longitude>
					<latitude>-29.50950692942505</latitude>
					<altitude>77.89707430433336</altitude>
					<heading>355.8424366108928</heading>
					<tilt>0</tilt>
					<gx:fovy>35</gx:fovy>
					<range>25.00072035340963</range>
					<altitudeMode>absolute</altitudeMode>
				</LookAt>
				<styleUrl>#__managed_style_0ACF4388FC3D7A75E9B4</styleUrl>
				<Point>
					<coordinates>-51.39956426790995,-29.50953653425395,77.87496641965302</coordinates>
				</Point>
			</Placemark>
		</Folder>
		<Folder id="0372D1A1AC3D272AC3E7">
			<name>1978</name>
			<open>1</open>
			<styleUrl>#__managed_style_0ACF4388FC3D7A75E9B4</styleUrl>
			<Placemark id="0BA60DC9503C9B6C6296">
				<name>hiroshima</name>
				<LookAt>
					<longitude>132.4870855501601</longitude>
					<latitude>34.41309845892408</latitude>
					<altitude>77.58812581998184</altitude>
					<heading>0</heading>
					<tilt>0</tilt>
					<gx:fovy>35</gx:fovy>
					<range>24.99999895062956</range>
					<altitudeMode>absolute</altitudeMode>
				</LookAt>
				<styleUrl>#__managed_style_0ACF4388FC3D7A75E9B4</styleUrl>
				<Point>
					<coordinates>132.4870981080507,34.41309477051948,78.06444042551219</coordinates>
				</Point>
			</Placemark>
			<Placemark id="02696DA3793C9B6F7F54">
				<name>greenland</name>
				<LookAt>
					<longitude>-47.51295770989255</longitude>
					<latitude>60.9817472343576</latitude>
					<altitude>7.573540581960547</altitude>
					<heading>0</heading>
					<tilt>0</tilt>
					<gx:fovy>35</gx:fovy>
					<range>24.99999895062956</range>
					<altitudeMode>absolute</altitudeMode>
				</LookAt>
				<styleUrl>#__managed_style_0ACF4388FC3D7A75E9B4</styleUrl>
				<Point>
					<coordinates>-47.51293665074365,60.98172109173914,7.39423723461595</coordinates>
				</Point>
			</Placemark>
			<Placemark id="01EA45A7253C9B169608">
				<name>817@0</name>
				<LookAt>
					<longitude>-47.51286736800191</longitude>
					<latitude>-24.72969160151428</latitude>
					<altitude>-0.04715276334008589</altitude>
					<heading>0</heading>
					<tilt>0</tilt>
					<gx:fovy>30</gx:fovy>
					<range>72.44320343651452</range>
					<altitudeMode>absolute</altitudeMode>
				</LookAt>
				<styleUrl>#__managed_style_0ACF4388FC3D7A75E9B4</styleUrl>
				<Point>
					<coordinates>-47.5129088407262,-24.72974067187702,-0.04715484216590736</coordinates>
				</Point>
			</Placemark>
			<Placemark id="0709876C583C9B0F52F8">
				<name>817@1978</name>
				<LookAt>
					<longitude>-47.5095101173255</longitude>
					<latitude>-6.810810141147926</latitude>
					<altitude>171.9321037229995</altitude>
					<heading>0</heading>
					<tilt>0</tilt>
					<gx:fovy>30</gx:fovy>
					<range>35509.70205523074</range>
					<altitudeMode>absolute</altitudeMode>
				</LookAt>
				<styleUrl>#__managed_style_0ACF4388FC3D7A75E9B4</styleUrl>
				<Point>
					<coordinates>-47.5129088407262,-6.849685403431046,144.5111154218566</coordinates>
				</Point>
			</Placemark>
		</Folder>
	</Folder>
	<Folder id="038C28F3CE3C9B51A040">
		<name>lines</name>
		<open>1</open>
		<styleUrl>#__managed_style_0ACF4388FC3D7A75E9B4</styleUrl>
		<Placemark id="0D63E211B93C5E223158">
			<name>dragon-&gt;cloverleaf</name>
			<snippet></snippet>
			<LookAt>
				<longitude>-58.45030240901633</longitude>
				<latitude>-16.04664974746105</latitude>
				<altitude>304.6219947249353</altitude>
				<heading>355.7328350909152</heading>
				<tilt>0</tilt>
				<gx:fovy>35</gx:fovy>
				<range>3106236.559966207</range>
				<altitudeMode>absolute</altitudeMode>
			</LookAt>
			<styleUrl>#__managed_style_09238801CF3D7A75E9BC</styleUrl>
			<LineString>
				<coordinates>
					-54.84617999127759,-16.52124119115298,0 30.82208445061866,14.28628927472754,0 125.1538200087224,16.52124119115298,0 -149.1779155493813,-14.28628927472754,0 -54.84617999127759,-16.52124119115298,0 
				</coordinates>
			</LineString>
		</Placemark>
		<Placemark id="03176E4DC53C73AC5FF8">
			<name>dragon-&gt;817</name>
			<LookAt>
				<longitude>132.4853216995413</longitude>
				<latitude>6.842432868863019</latitude>
				<altitude>85.78567202613918</altitude>
				<heading>0</heading>
				<tilt>0</tilt>
				<gx:fovy>35</gx:fovy>
				<range>553.4387967700604</range>
				<altitudeMode>absolute</altitudeMode>
			</LookAt>
			<styleUrl>#__managed_style_32CD28B3E83D7A75E9BC</styleUrl>
			<LineString>
				<coordinates>
					-54.84617999127759,-16.52124119115298,0 132.4852908637753,6.84235208591315,0 125.1538200087224,16.52124119115298,0 -47.51470913622472,-6.84235208591315,0 -54.84617999127759,-16.52124119115298,0 
				</coordinates>
			</LineString>
		</Placemark>
		<Placemark id="01341D0CAE3C75EFC548">
			<name>dragon-&gt;crater</name>
			<LookAt>
				<longitude>-70.69927583133881</longitude>
				<latitude>-9.702368694958126</latitude>
				<altitude>531.7673462149389</altitude>
				<heading>0</heading>
				<tilt>0</tilt>
				<gx:fovy>35</gx:fovy>
				<range>3039226.564587951</range>
				<altitudeMode>absolute</altitudeMode>
			</LookAt>
			<styleUrl>#__managed_style_0DDA67A1323D7A75E9BF</styleUrl>
			<LineString>
				<coordinates>
					-54.84617999127759,-16.52124119115298,0 37.91439468140113,-9.222768594345251,0 125.1538200087224,16.52124119115298,0 -142.0856053185989,9.222768594345251,0 -54.84617999127759,-16.52124119115298,0 
				</coordinates>
			</LineString>
		</Placemark>
		<Placemark id="INVENTED_0003">
			<name>dragon-&gt;sm</name>
			<LookAt>
				<longitude>-54.31870777339267</longitude>
				<latitude>-23.1068424243539</latitude>
				<altitude>500</altitude>
				<heading>0</heading>
				<tilt>0</tilt>
				<gx:fovy>35</gx:fovy>
				<range>8000000</range>
				<altitudeMode>absolute</altitudeMode>
			</LookAt>
			<styleUrl>#__managed_style_0A36FD1C523D7A75E9C0</styleUrl>
			<LineString>
				<tessellate>1</tessellate>
				<coordinates>
					-54.84617999127759,-16.52124119115298,0 -53.79123886089558,-29.69244014684257,0 125.1538200087224,16.52124119115298,0 126.2087611391044,29.69244014684257,0 -54.84617999127759,-16.52124119115298,0 
				</coordinates>
			</LineString>
		</Placemark>
		<Placemark id="INVENTED_0005">
			<name>dragon-&gt;brain</name>
			<LookAt>
				<longitude>-54.71606702917364</longitude>
				<latitude>-23.11299126802941</latitude>
				<altitude>500</altitude>
				<heading>0</heading>
				<tilt>0</tilt>
				<gx:fovy>35</gx:fovy>
				<range>8000000</range>
				<altitudeMode>absolute</altitudeMode>
			</LookAt>
			<styleUrl>#__managed_style_01F8B1618C3D7A75E9C1</styleUrl>
			<LineString>
				<tessellate>1</tessellate>
				<coordinates>
					-54.84617999127759,-16.52124119115298,0 -54.58595199999999,-29.704733,0 125.1538200087224,16.52124119115298,0 125.414048,29.704733,0 -54.84617999127759,-16.52124119115298,0 
				</coordinates>
			</LineString>
		</Placemark>
		<Placemark id="INVENTED_0004">
			<name>bridge-&gt;sm</name>
			<LookAt>
				<longitude>-54.27624447500698</longitude>
				<latitude>-23.11373663875032</latitude>
				<altitude>500</altitude>
				<heading>0</heading>
				<tilt>0</tilt>
				<gx:fovy>35</gx:fovy>
				<range>8000000</range>
				<altitudeMode>absolute</altitudeMode>
			</LookAt>
			<styleUrl>#__managed_style_03E1D07AF53D7A75E9C4</styleUrl>
			<LineString>
				<tessellate>1</tessellate>
				<coordinates>
					-54.76125008911836,-16.53503313065806,0 -53.7843487256106,-29.76963630568194,0 125.2387499108816,16.53503313065806,0 126.2087611391044,29.69244014684257,0 -54.76125008911836,-16.53503313065806,0 
				</coordinates>
			</LineString>
		</Placemark>
		<Placemark id="09A8948E6D3C6872ABA9">
			<name>dc@817</name>
			<LookAt>
				<longitude>-47.51439692725837</longitude>
				<latitude>-6.856264141040286</latitude>
				<altitude>140.9830420553758</altitude>
				<heading>2.53477411838773</heading>
				<tilt>0.9313866634398625</tilt>
				<gx:fovy>35</gx:fovy>
				<range>67.68270994881279</range>
				<altitudeMode>absolute</altitudeMode>
			</LookAt>
			<styleUrl>#__managed_style_07B04876213D7A75E9C7</styleUrl>
			<LineString>
				<coordinates>
					-47.5129088407262,-6.85637991748746,0 -47.5129088407262,-24.73059937844906,0 132.4870911592738,6.85637991748746,0 132.4870911592738,24.73059937844906,0 -47.5129088407262,-6.85637991748746,0 
				</coordinates>
			</LineString>
		</Placemark>
		<Placemark id="0C9E1E1D8D3C73B0CD93">
			<name>[dc;dc@817]@817</name>
			<LookAt>
				<longitude>85.89306713219182</longitude>
				<latitude>-7.938115404813348</latitude>
				<altitude>-9053.906600566175</altitude>
				<heading>0</heading>
				<tilt>0</tilt>
				<gx:fovy>35</gx:fovy>
				<range>10885305.18580556</range>
				<altitudeMode>absolute</altitudeMode>
			</LookAt>
			<styleUrl>#__managed_style_085F1E7F293D7A75E9C8</styleUrl>
			<LineString>
				<coordinates>
					132.4870911592738,14.5058901289941,0 49.09538682027404,-37.8713795188904,0 -47.5129088407262,-14.5058901289941,0 -130.904613179726,37.8713795188904,0 132.4870911592738,14.5058901289941,0 
				</coordinates>
			</LineString>
		</Placemark>
		<Placemark id="10CFDDA2F23D6F09D994">
			<name>poa-&gt;paslaten</name>
			<styleUrl>#__managed_style_0DF063586F3D7A75E9C9</styleUrl>
			<LineString>
				<coordinates>
					-51.30560457102141,-30.1048392405934,0 124.8913949904545,1.169814644441425,0 128.6943954289786,30.1048392405934,0 -55.10860500954549,-1.169814644441425,0 -51.30560457102141,-30.1048392405934,0 
				</coordinates>
			</LineString>
		</Placemark>
		<Placemark id="018FF0A5E03D78034E18">
			<name>(temp) 817 road</name>
			<LookAt>
				<longitude>-47.51128539068227</longitude>
				<latitude>-14.50353425031521</latitude>
				<altitude>994.2883722754164</altitude>
				<heading>0</heading>
				<tilt>0</tilt>
				<gx:fovy>35</gx:fovy>
				<range>25.00241521536282</range>
				<altitudeMode>absolute</altitudeMode>
			</LookAt>
			<styleUrl>#__managed_style_0ACF4388FC3D7A75E9B4</styleUrl>
			<LineString>
				<coordinates>
					-47.51377994210479,-14.50714837733409,0 -47.5112558649564,-14.50349179323085,0 
				</coordinates>
			</LineString>
		</Placemark>
	</Folder>
</Document>
</kml>
